{
  "type": "FeatureCollection",
  "features": [
    {
      "type": "Feature",
      "properties": {
        "norad_id": 35080,
        "name": "IRIDIUM 33 DEB",
        "group": "iridium-33-debris",
        "lat": 0.0884327477485967,
        "lon": 46.320693931707325,
        "alt_km": 637.9784876895656,
        "timestamp": "2025-12-25T09:48:52.674919+00:00",
        "meta_object_name": "IRIDIUM 33 DEB",
        "meta_object_id": "1997-051PF",
        "meta_epoch": "2025-12-24T03:08:07.207008",
        "meta_mean_motion": 14.87285767,
        "meta_eccentricity": 0.00582666,
        "meta_inclination": 86.2065,
        "meta_ra_of_asc_node": 46.9271,
        "meta_arg_of_pericenter": 140.2548,
        "meta_mean_anomaly": 220.2968,
        "meta_ephemeris_type": 0,
        "meta_classification_type": "U",
        "meta_norad_cat_id": 35080,
        "meta_element_set_no": 999,
        "meta_rev_at_epoch": 69857,
        "meta_bstar": 0.0059641205,
        "meta_mean_motion_dot": 0.00055854,
        "meta_mean_motion_ddot": 0,
        "tle_line1": "1 35080U 97051PF  25358.13063897  .00055854  00000+0  59641-2 0  9991",
        "tle_line2": "2 35080  86.2065  46.9271 0058266 140.2548 220.2968 14.87285767698574"
      },
      "geometry": {
        "type": "Point",
        "coordinates": [
          46.320693931707325,
          0.0884327477485967
        ]
      }
    },
    {
      "type": "Feature",
      "properties": {
        "norad_id": 35297,
        "name": "IRIDIUM 33 DEB",
        "group": "iridium-33-debris",
        "lat": -1.300292244020463,
        "lon": 57.26869146470399,
        "alt_km": 747.47222718781,
        "timestamp": "2025-12-25T09:48:52.674928+00:00",
        "meta_object_name": "IRIDIUM 33 DEB",
        "meta_object_id": "1997-051PM",
        "meta_epoch": "2025-12-22T21:59:54.464640",
        "meta_mean_motion": 14.45198443,
        "meta_eccentricity": 0.0018277,
        "meta_inclination": 86.3852,
        "meta_ra_of_asc_node": 58.4147,
        "meta_arg_of_pericenter": 110.0569,
        "meta_mean_anomaly": 250.2602,
        "meta_ephemeris_type": 0,
        "meta_classification_type": "U",
        "meta_norad_cat_id": 35297,
        "meta_element_set_no": 999,
        "meta_rev_at_epoch": 70573,
        "meta_bstar": 0.00060275,
        "meta_mean_motion_dot": 2.134e-05,
        "meta_mean_motion_ddot": 0,
        "tle_line1": "1 35297U 97051PM  25356.91660260  .00002134  00000+0  60275-3 0  9991",
        "tle_line2": "2 35297  86.3852  58.4147 0018277 110.0569 250.2602 14.45198443705738"
      },
      "geometry": {
        "type": "Point",
        "coordinates": [
          57.26869146470399,
          -1.300292244020463
        ]
      }
    },
    {
      "type": "Feature",
      "properties": {
        "norad_id": 35299,
        "name": "IRIDIUM 33 DEB",
        "group": "iridium-33-debris",
        "lat": 82.24762008821781,
        "lon": 179.18431389330686,
        "alt_km": 713.6787625893639,
        "timestamp": "2025-12-25T09:48:52.674939+00:00",
        "meta_object_name": "IRIDIUM 33 DEB",
        "meta_object_id": "1997-051PP",
        "meta_epoch": "2025-12-24T20:51:14.844384",
        "meta_mean_motion": 14.409197,
        "meta_eccentricity": 0.00585817,
        "meta_inclination": 86.2875,
        "meta_ra_of_asc_node": 27.9049,
        "meta_arg_of_pericenter": 63.754,
        "meta_mean_anomaly": 113.1792,
        "meta_ephemeris_type": 0,
        "meta_classification_type": "U",
        "meta_norad_cat_id": 35299,
        "meta_element_set_no": 999,
        "meta_rev_at_epoch": 86505,
        "meta_bstar": 0.00080315258,
        "meta_mean_motion_dot": 2.649e-05,
        "meta_mean_motion_ddot": 0,
        "tle_line1": "1 35299U 97051PP  25358.86892181  .00002649  00000+0  80315-3 0  9996",
        "tle_line2": "2 35299  86.2875  27.9049 0058581  63.7540 113.1792 14.40919700865052"
      },
      "geometry": {
        "type": "Point",
        "coordinates": [
          179.18431389330686,
          82.24762008821781
        ]
      }
    },
    {
      "type": "Feature",
      "properties": {
        "norad_id": 35480,
        "name": "IRIDIUM 33 DEB",
        "group": "iridium-33-debris",
        "lat": -61.552529105923796,
        "lon": -153.82573468879232,
        "alt_km": 744.7263792104359,
        "timestamp": "2025-12-25T09:48:52.674949+00:00",
        "meta_object_name": "IRIDIUM 33 DEB",
        "meta_object_id": "1997-051QA",
        "meta_epoch": "2025-12-24T07:51:25.805664",
        "meta_mean_motion": 14.49809175,
        "meta_eccentricity": 0.00158453,
        "meta_inclination": 86.3558,
        "meta_ra_of_asc_node": 19.8875,
        "meta_arg_of_pericenter": 70.7073,
        "meta_mean_anomaly": 289.5844,
        "meta_ephemeris_type": 0,
        "meta_classification_type": "U",
        "meta_norad_cat_id": 35480,
        "meta_element_set_no": 999,
        "meta_rev_at_epoch": 87199,
        "meta_bstar": 0.00057778093,
        "meta_mean_motion_dot": 2.251e-05,
        "meta_mean_motion_ddot": 0,
        "tle_line1": "1 35480U 97051QA  25358.32738201  .00002251  00000+0  57778-3 0  9997",
        "tle_line2": "2 35480  86.3558  19.8875 0015845  70.7073 289.5844 14.49809175871994"
      },
      "geometry": {
        "type": "Point",
        "coordinates": [
          -153.82573468879232,
          -61.552529105923796
        ]
      }
    },
    {
      "type": "Feature",
      "properties": {
        "norad_id": 35484,
        "name": "IRIDIUM 33 DEB",
        "group": "iridium-33-debris",
        "lat": 50.71094523118014,
        "lon": 162.35401491583056,
        "alt_km": 552.129717694882,
        "timestamp": "2025-12-25T09:48:52.674959+00:00",
        "meta_object_name": "IRIDIUM 33 DEB",
        "meta_object_id": "1997-051QE",
        "meta_epoch": "2025-12-23T05:59:10.354560",
        "meta_mean_motion": 14.99264182,
        "meta_eccentricity": 0.00245796,
        "meta_inclination": 86.3609,
        "meta_ra_of_asc_node": 347.8264,
        "meta_arg_of_pericenter": 91.5392,
        "meta_mean_anomaly": 268.8655,
        "meta_ephemeris_type": 0,
        "meta_classification_type": "U",
        "meta_norad_cat_id": 35484,
        "meta_element_set_no": 999,
        "meta_rev_at_epoch": 62173,
        "meta_bstar": 0.0029536278,
        "meta_mean_motion_dot": 0.00036413,
        "meta_mean_motion_ddot": 0,
        "tle_line1": "1 35484U 97051QE  25357.24942540  .00036413  00000+0  29536-2 0  9991",
        "tle_line2": "2 35484  86.3609 347.8264 0024579  91.5392 268.8655 14.99264182621733"
      },
      "geometry": {
        "type": "Point",
        "coordinates": [
          162.35401491583056,
          50.71094523118014
        ]
      }
    },
    {
      "type": "Feature",
      "properties": {
        "norad_id": 35488,
        "name": "IRIDIUM 33 DEB",
        "group": "iridium-33-debris",
        "lat": -57.8393616309746,
        "lon": 120.90346258691685,
        "alt_km": 636.4605132451707,
        "timestamp": "2025-12-25T09:48:52.674969+00:00",
        "meta_object_name": "IRIDIUM 33 DEB",
        "meta_object_id": "1997-051QJ",
        "meta_epoch": "2025-12-24T19:47:30.471936",
        "meta_mean_motion": 14.83358408,
        "meta_eccentricity": 0.00280046,
        "meta_inclination": 86.3249,
        "meta_ra_of_asc_node": 295.3058,
        "meta_arg_of_pericenter": 2.7873,
        "meta_mean_anomaly": 357.3501,
        "meta_ephemeris_type": 0,
        "meta_classification_type": "U",
        "meta_norad_cat_id": 35488,
        "meta_element_set_no": 999,
        "meta_rev_at_epoch": 88445,
        "meta_bstar": 0.0017384526,
        "meta_mean_motion_dot": 0.00014384,
        "meta_mean_motion_ddot": 0,
        "tle_line1": "1 35488U 97051QJ  25358.82465824  .00014384  00000+0  17385-2 0  9997",
        "tle_line2": "2 35488  86.3249 295.3058 0028004   2.7873 357.3501 14.83358408884452"
      },
      "geometry": {
        "type": "Point",
        "coordinates": [
          120.90346258691685,
          -57.8393616309746
        ]
      }
    },
    {
      "type": "Feature",
      "properties": {
        "norad_id": 35616,
        "name": "IRIDIUM 33 DEB",
        "group": "iridium-33-debris",
        "lat": -19.69787427291497,
        "lon": -21.326887402004168,
        "alt_km": 634.1708067508625,
        "timestamp": "2025-12-25T09:48:52.674979+00:00",
        "meta_object_name": "IRIDIUM 33 DEB",
        "meta_object_id": "1997-051QN",
        "meta_epoch": "2025-12-21T16:46:45.287328",
        "meta_mean_motion": 14.82015021,
        "meta_eccentricity": 0.00114093,
        "meta_inclination": 86.3545,
        "meta_ra_of_asc_node": 341.6744,
        "meta_arg_of_pericenter": 134.0095,
        "meta_mean_anomaly": 226.2069,
        "meta_ephemeris_type": 0,
        "meta_classification_type": "U",
        "meta_norad_cat_id": 35616,
        "meta_element_set_no": 999,
        "meta_rev_at_epoch": 87707,
        "meta_bstar": 0.0013754653,
        "meta_mean_motion_dot": 0.00010957,
        "meta_mean_motion_ddot": 0,
        "tle_line1": "1 35616U 97051QN  25355.69913527  .00010957  00000+0  13755-2 0  9999",
        "tle_line2": "2 35616  86.3545 341.6744 0011409 134.0095 226.2069 14.82015021877070"
      },
      "geometry": {
        "type": "Point",
        "coordinates": [
          -21.326887402004168,
          -19.69787427291497
        ]
      }
    }
  ]
}